OBJECT_NAME,OBJECT_ID,EPOCH,MEAN_MOTION,ECCENTRICITY,INCLINATION,RA_OF_ASC_NODE,ARG_OF_PERICENTER,MEAN_ANOMALY,EPHEMERIS_TYPE,CLASSIFICATION_TYPE,NORAD_CAT_ID,ELEMENT_SET_NO,REV_AT_EPOCH,BSTAR,MEAN_MOTION_DOT,MEAN_MOTION_DDOT
STARLINK-37595,2026-154AE,2026-07-11T22:00:03.000096,16.05182009,.00008639,53.1577,309.2910,53.4579,41.0166,0,U,69847,999,214,-.20502321E-2,-.1458531E-1,.69981093E-3
CHUANG XIN 26 (CX-26),2026-158A,2026-07-11T11:32:29.843808,14.25145244,.00048968,49.9853,296.0945,288.4346,71.6034,0,U,69972,999,17,.3036009E-4,-.88E-6,0
