STARLINK-37595          
1 69847U 26154AE  26192.91670139 -.01458531  69981-3 -20502-2 0  9994
2 69847  53.1577 309.2910 0000863  53.4579  41.0166 16.05182009  2145
CHUANG XIN 26 (CX-26)   
1 69972U 26158A   26192.48090097 -.00000088  00000+0  30360-4 0  9994
2 69972  49.9853 296.0945 0004896 288.4346  71.6034 14.25145244   171
